PROMETHEUS 2-3          
1 41855U 16067H   23333.44479546  .00017122  00000+0  10612-2 0  9994
2 41855  98.0771 131.0983 0013398  31.5675 328.6354 15.09758882385384
DIDO-2                  
1 42000U 17008BE  23333.11652195  .00046405  00000+0  84121-3 0  9993
2 42000  97.1785  27.3398 0005471 139.6989 220.4669 15.49467362377383
AALTO-1                 
1 42775U 17036L   23333.58305982  .00039579  00000+0  85857-3 0  9994
2 42775  97.1333 359.5737 0006448 213.5588 146.5253 15.44270614357966
URSA MAIOR              
1 42776U 17036M   23333.61937833  .00054616  00000+0  10360-2 0  9990
2 42776  97.1334   1.6120 0005930 203.4194 156.6788 15.48124537358080
DIAMOND RED             
1 42783U 17036U   23333.58986332  .00074668  00000+0  11253-2 0  9993
2 42783  97.1270   5.8678 0003867 200.5516 159.5583 15.54533547358351
PEGASUS                 
1 42784U 17036V   23333.61254501  .00278209  00000+0  16177-2 0  9991
2 42784  97.1181  11.3542 0003482 166.9955 193.1402 15.77709608358734
DIAMOND GREEN           
1 42785U 17036W   23333.39752223  .00085993  00000+0  11512-2 0  9995
2 42785  97.1247   6.2920 0004053 192.9034 167.2119 15.57710206358431
DIAMOND BLUE            
1 42786U 17036X   23333.59013371  .00080480  00000+0  11546-2 0  9995
2 42786  97.1279   6.2132 0004385 191.0859 169.0300 15.55857535358443
CICERO 6                
1 42793U 17036AE  23333.51900244  .00063997  00000+0  11232-2 0  9995
2 42793  97.1261   5.2498 0004100 198.9833 161.1267 15.50316907358408
CORVUS BC2              
1 42846U 17042X   23333.49106807  .00005707  00000+0  51488-3 0  9994
2 42846  97.3733 165.0367 0009445  26.3559 333.8142 14.95855071347427
CORVUS BC1              
1 42847U 17042Y   23333.53802239  .00005545  00000+0  49908-3 0  9996
2 42847  97.3720 165.4535 0008904  23.2607 336.9017 14.95967748347446
MIRATA                  
1 43015U 17073C   23333.58141566  .00025730  00000+0  14608-2 0  9998
2 43015  97.6132 216.8877 0192311 220.6335 138.0405 14.98514010326207
MAKERSAT 0              
1 43016U 17073D   23333.17169894  .00016532  00000+0  10438-2 0  9995
2 43016  97.6068 213.3011 0211897 235.7690 122.3295 14.92385219325887
CORVUS BC3              
1 43118U 18004H   23333.44531347  .00054787  00000+0  98259-3 0  9991
2 43118  97.3112  48.5679 0004666 260.3148  99.7576 15.49739061327524
GOMX-4B                 
1 43196U 18015E   23333.40797189  .00036092  00000+0  77887-3 0  9996
2 43196  97.5934 130.2765 0011432 334.5173  25.5509 15.44399720324372
GOMX-4A                 
1 43197U 18015F   23333.58212178  .00044431  00000+0  81799-3 0  9999
2 43197  97.5916 133.5413 0010479 325.4500  34.6069 15.48992068324619
CUBEBEL-1 (BSUSAT-1)    
1 43666U 18083E   23333.57465293  .00120612  00000+0  16428-2 0  9994
2 43666  97.3569   7.7654 0004481 220.9790 139.1129 15.57118044282746
CICERO 10               
1 43690U 18088A   23333.42891645  .00046848  00000+0  95701-3 0  9994
2 43690  85.0252 320.0900 0007346   1.2807 358.8465 15.45946128280934
PROXIMA I               
1 43694U 18088E   23332.97267875  .00066381  00000+0  11081-2 0  9991
2 43694  85.0166 315.2231 0005105 303.8032  56.2739 15.51690316281214
PROXIMA II              
1 43696U 18088G   23333.39267821  .00060021  00000+0  10105-2 0  9992
2 43696  85.0171 315.0211 0005099 299.4164  60.6585 15.51470737281262
SIRION PATHFINDER-2     
1 43759U 18099B   23333.15781701  .00006680  00000+0  53767-3 0  9999
2 43759  97.5482  30.0851 0012194 262.7003  97.2835 15.00225025272343
CORVUS BC4              
1 43767U 18099K   23333.11232269  .00007440  00000+0  60607-3 0  9990
2 43767  97.5481  27.7468 0007443 299.1716  60.8763 14.99758083272230
MOVE-II                 
1 43780U 18099Y   23333.11745689  .00021051  00000+0  13616-2 0  9991
2 43780  97.5514  33.9290 0007113 316.8312  43.2358 15.08189912272557
SPACEBEE-7              
1 43816U 18099BL  23333.14720113  .00014334  00000+0  98839-3 0  9996
2 43816  97.5775  34.9198 0010041 255.8772 104.1340 15.05883424272105
SPACEBEE-5              
1 43817U 18099BM  23333.19766515  .00140655  00000+0  35675-2 0  9992
2 43817  97.5711  47.4938 0003458 237.1547 122.9365 15.39127936272857
SPACEBEE-6              
1 43818U 18099BN  23332.67673566  .00025280  00000+0  14815-2 0  9997
2 43818  97.5694  37.4476 0009637 269.4510  90.5616 15.11734820272368
SHIELDS 1               
1 43850U 18104B   23333.55107725  .00015773  00000+0  50718-3 0  9996
2 43850  85.0269  58.6196 0014160 102.0099 258.2737 15.32026899275395
STF-1                   
1 43852U 18104D   23333.27963592  .00128628  00000+0  13562-2 0  9998
2 43852  85.0163  52.9114 0005650  95.3241 264.8668 15.63811773275982
ZACUBE-2                
1 43907U 18111AH  23333.60689601  .00077746  00000+0  11546-2 0  9994
2 43907  97.1042 210.3741 0010708 344.5503  15.5424 15.54869020274718
LUME 1                  
1 43908U 18111AJ  23333.63117908  .00146037  00000+0  12828-2 0  9998
2 43908  97.1052 216.1034 0005664 339.6012  20.5023 15.68337511275097
MOVE-IIB                
1 44398U 19038N   23333.76501767  .01642181  17327-2  27094-2 0  9991
2 44398  97.6570 328.7523 0007923 103.6410 256.5752 16.03500342244422
SONATE                  
1 44400U 19038Q   23333.50434302  .00019028  00000+0  74026-3 0  9999
2 44400  97.7011 315.2242 0021175  93.2687 267.0974 15.25858528243406
LUCKY-7                 
1 44406U 19038W   23333.52470226  .00030521  00000+0  10259-2 0  9990
2 44406  97.6959 317.3610 0019429  85.1961 275.1497 15.30590561243550
BEESAT 9                
1 44412U 19038AC  23333.52004724  .00060184  00000+0  13814-2 0  9991
2 44412  97.6853 321.0264 0015612  76.6657 283.6329 15.42380827243524
JAISAT-1                
1 44419U 19038F   23333.44624132  .00058430  00000+0  13403-2 0  9995
2 44419  97.6834 322.0715 0015185  74.4593 285.8329 15.42414925243893
DUCHIFAT-3              
1 44854U 19089C   23332.95949046  .00015400  00000+0  93273-3 0  9997
2 44854  36.9580 184.0720 0008478 250.2998 109.6832 15.09936462217781
M2 PATHFINDER           
1 45727U 20037E   23333.49015675  .00005700  00000+0  52060-3 0  9995
2 45727  97.7627 146.4035 0012963  75.7767 284.4893 14.95373083185935
NETSAT-4                
1 46504U 20068U   23333.43989601  .00011846  00000+0  72194-3 0  9994
2 46504  97.7829 281.2702 0009801 339.9511  20.1331 15.10490366173820
NETSAT-3                
1 46505U 20068V   23333.43291266  .00011335  00000+0  69724-3 0  9996
2 46505  97.7802 280.9790 0009321 349.3020  10.8009 15.10167371173827
NETSAT-1                
1 46506U 20068W   23333.39546561  .00009684  00000+0  60880-3 0  9991
2 46506  97.7826 280.7260 0008375   1.2355 358.8892 15.09424103173807
NETSAT-2                
1 46507U 20068X   23333.31325983  .00012078  00000+0  73799-3 0  9991
2 46507  97.7818 280.8400 0007987  10.4317 349.7076 15.10405258173753
WILDTRACKCUBE-SIMBA     
1 47941U 21022K   23333.62535802  .00015085  00000+0  79203-3 0  9999
2 47941  97.4792 227.8493 0019249 119.8595 240.4554 15.15651500148032
BEESAT-6                
1 47957U 21022AB  23333.19388100  .00054838  00000+0  19049-2 0  9995
2 47957  97.4748 231.5487 0015986 104.0189 256.2830 15.29440763148050
SMOG-1                  
1 47964U 21022AJ  23333.25569492  .00048074  00000+0  15891-2 0  9991
2 47964  97.4821 234.2187 0014917  90.6174 269.6776 15.31101686147231
BCCSAT-1                
1 48041U 21022AK  23333.53378193  .00043142  00000+0  16139-2 0  9992
2 48041  97.4813 232.6784 0013035  92.7091 267.5640 15.27110337147139
BEESAT-5                
1 48083U 21022AM  23332.95705852  .00061878  00000+0  19893-2 0  9995
2 48083  97.4614 231.7634 0015426 101.0907 259.2070 15.31919789147200
BEESAT-7                
1 48084U 21022AN  23332.92271148  .00051633  00000+0  17588-2 0  9996
2 48084  97.4752 231.5563 0015487 102.7168 257.5805 15.30101560146752
BEESAT-8                
1 48085U 21022AP  23332.68181390  .00023978  00000+0  10760-2 0  9995
2 48085  97.4840 229.5283 0017556 114.1225 246.1849 15.21047688147143
LEDSAT                  
1 49069U 21073D   23333.54536783  .00017552  00000+0  85968-3 0  9994
2 49069  97.4651  41.8546 0020754 266.2742  93.6119 15.18032115125955
